ONEWEB-0034             
1 45454U 20020AG  26063.37004383  .00000177  00000+0  46375-3 0  9993
2 45454  87.8860  41.8977 0001852  83.8436 276.2903 13.11417111288856
ONEWEB-0060             
1 45455U 20020AH  26063.49379940 -.00000377  00000+0 -10987-2 0  9994
2 45455  87.8848  41.8842 0001168 116.2019 243.9230 13.11415995288821
ONEWEB-0086             
1 45456U 20020AJ  26063.85410535  .00000423  00000+0  11583-2 0  9994
2 45456  87.8860  41.7995 0001890 108.2475 251.8859 13.11414784288935
ONEWEB-0088             
1 45457U 20020AK  26063.45058162  .00000223  00000+0  59421-3 0  9997
2 45457  87.8876  41.8429 0001676  76.7993 283.3322 13.11418201288812
ONEWEB-0102             
1 47258U 20100A   26063.30786924  .00000450  00000+0  12142-2 0  9995
2 47258  87.8990  11.4970 0001809  87.9167 272.2169 13.12442016250973
ONEWEB-0109             
1 47259U 20100B   26063.77376049  .00000234  00000+0  61376-3 0  9994
2 47259  87.9002  11.3780 0001965  80.5444 279.5906 13.12440457250861
ONEWEB-0110             
1 47260U 20100C   26063.34343278 -.00000394  00000+0 -11319-2 0  9997
2 47260  87.8998  11.4483 0001703  89.0590 271.0733 13.12444637250974
ONEWEB-0111             
1 47261U 20100D   26063.37394093  .00000403  00000+0  10858-2 0  9998
2 47261  87.8998  11.4608 0001695  82.0371 278.0950 13.12442682250813
ONEWEB-0114             
1 47262U 20100E   26063.78561419 -.00000119  00000+0 -36486-3 0  9994
2 47262  87.9004  11.3741 0002041  78.1614 281.9743 13.12440584250825
ONEWEB-0117             
1 47263U 20100F   26063.39595557  .00000175  00000+0  45229-3 0  9997
2 47263  87.8996  11.4463 0001817  81.4440 278.6895 13.12441062250789
ONEWEB-0118             
1 47264U 20100G   26063.35360030 -.00000127  00000+0 -38808-3 0  9994
2 47264  87.8996  11.4570 0002001  71.6257 288.5089 13.12443012250975
ONEWEB-0119             
1 47265U 20100H   26063.37902559  .00000479  00000+0  12962-2 0  9995
2 47265  87.8990  11.4783 0001844  79.8612 280.2724 13.12441963250951
ONEWEB-0120             
1 47266U 20100J   26063.78405488 -.00000065  00000+0 -21494-3 0  9994
2 47266  87.8988  11.3984 0001931  79.7752 280.3594 13.12440704251030
ONEWEB-0121             
1 47267U 20100K   26063.39087646  .00000297  00000+0  78943-3 0  9990
2 47267  87.8996  11.4524 0001656  85.3558 274.7759 13.12440979250899
ONEWEB-0122             
1 47268U 20100L   26063.38495551  .00000366  00000+0  98315-3 0  9990
2 47268  87.9001  11.4558 0001916  84.3512 275.7835 13.12444634250802
ONEWEB-0123             
1 47269U 20100M   26063.38071642  .00000486  00000+0  13165-2 0  9994
2 47269  87.8989  11.4767 0001827  76.8139 283.3193 13.12442138250945
ONEWEB-0124             
1 47270U 20100N   26063.37054721  .00000410  00000+0  11056-2 0  9998
2 47270  87.8984  11.4832 0001669  79.8249 280.3067 13.12443207250826
