[{"OBJECT_NAME":"ONEWEB-0034","OBJECT_ID":"2020-020AG","EPOCH":"2026-03-04T08:52:51.786912","MEAN_MOTION":13.11417111,"ECCENTRICITY":0.00018529,"INCLINATION":87.886,"RA_OF_ASC_NODE":41.8977,"ARG_OF_PERICENTER":83.8436,"MEAN_ANOMALY":276.2903,"EPHEMERIS_TYPE":0,"CLASSIFICATION_TYPE":"U","NORAD_CAT_ID":45454,"ELEMENT_SET_NO":999,"REV_AT_EPOCH":28885,"BSTAR":0.00046374878,"MEAN_MOTION_DOT":1.77e-6,"MEAN_MOTION_DDOT":0},{"OBJECT_NAME":"ONEWEB-0060","OBJECT_ID":"2020-020AH","EPOCH":"2026-03-04T11:51:04.268160","MEAN_MOTION":13.11415995,"ECCENTRICITY":0.00011682,"INCLINATION":87.8848,"RA_OF_ASC_NODE":41.8842,"ARG_OF_PERICENTER":116.2019,"MEAN_ANOMALY":243.923,"EPHEMERIS_TYPE":0,"CLASSIFICATION_TYPE":"U","NORAD_CAT_ID":45455,"ELEMENT_SET_NO":999,"REV_AT_EPOCH":28882,"BSTAR":-0.0010986987,"MEAN_MOTION_DOT":-3.77e-6,"MEAN_MOTION_DDOT":0},{"OBJECT_NAME":"ONEWEB-0086","OBJECT_ID":"2020-020AJ","EPOCH":"2026-03-04T20:29:54.702240","MEAN_MOTION":13.11414784,"ECCENTRICITY":0.000189,"INCLINATION":87.886,"RA_OF_ASC_NODE":41.7995,"ARG_OF_PERICENTER":108.2475,"MEAN_ANOMALY":251.8859,"EPHEMERIS_TYPE":0,"CLASSIFICATION_TYPE":"U","NORAD_CAT_ID":45456,"ELEMENT_SET_NO":999,"REV_AT_EPOCH":28893,"BSTAR":0.0011583,"MEAN_MOTION_DOT":4.23e-6,"MEAN_MOTION_DDOT":0},{"OBJECT_NAME":"ONEWEB-0088","OBJECT_ID":"2020-020AK","EPOCH":"2026-03-04T10:48:50.251968","MEAN_MOTION":13.11418201,"ECCENTRICITY":0.00016764,"INCLINATION":87.8876,"RA_OF_ASC_NODE":41.8429,"ARG_OF_PERICENTER":76.7993,"MEAN_ANOMALY":283.3322,"EPHEMERIS_TYPE":0,"CLASSIFICATION_TYPE":"U","NORAD_CAT_ID":45457,"ELEMENT_SET_NO":999,"REV_AT_EPOCH":28881,"BSTAR":0.00059421464,"MEAN_MOTION_DOT":2.23e-6,"MEAN_MOTION_DDOT":0},{"OBJECT_NAME":"ONEWEB-0102","OBJECT_ID":"2020-100A","EPOCH":"2026-03-04T07:23:19.902336","MEAN_MOTION":13.12442016,"ECCENTRICITY":0.00018095,"INCLINATION":87.899,"RA_OF_ASC_NODE":11.497,"ARG_OF_PERICENTER":87.9167,"MEAN_ANOMALY":272.2169,"EPHEMERIS_TYPE":0,"CLASSIFICATION_TYPE":"U","NORAD_CAT_ID":47258,"ELEMENT_SET_NO":999,"REV_AT_EPOCH":25097,"BSTAR":0.001214249,"MEAN_MOTION_DOT":4.5e-6,"MEAN_MOTION_DDOT":0},{"OBJECT_NAME":"ONEWEB-0109","OBJECT_ID":"2020-100B","EPOCH":"2026-03-04T18:34:12.906336","MEAN_MOTION":13.12440457,"ECCENTRICITY":0.0001965,"INCLINATION":87.9002,"RA_OF_ASC_NODE":11.378,"ARG_OF_PERICENTER":80.5444,"MEAN_ANOMALY":279.5906,"EPHEMERIS_TYPE":0,"CLASSIFICATION_TYPE":"U","NORAD_CAT_ID":47259,"ELEMENT_SET_NO":999,"REV_AT_EPOCH":25086,"BSTAR":0.00061376,"MEAN_MOTION_DOT":2.34e-6,"MEAN_MOTION_DDOT":0},{"OBJECT_NAME":"ONEWEB-0110","OBJECT_ID":"2020-100C","EPOCH":"2026-03-04T08:14:32.592192","MEAN_MOTION":13.12444637,"ECCENTRICITY":0.00017039,"INCLINATION":87.8998,"RA_OF_ASC_NODE":11.4483,"ARG_OF_PERICENTER":89.059,"MEAN_ANOMALY":271.0733,"EPHEMERIS_TYPE":0,"CLASSIFICATION_TYPE":"U","NORAD_CAT_ID":47260,"ELEMENT_SET_NO":999,"REV_AT_EPOCH":25097,"BSTAR":-0.0011318667,"MEAN_MOTION_DOT":-3.94e-6,"MEAN_MOTION_DDOT":0},{"OBJECT_NAME":"ONEWEB-0111","OBJECT_ID":"2020-100D","EPOCH":"2026-03-04T08:58:28.496352","MEAN_MOTION":13.12442682,"ECCENTRICITY":0.0001695,"INCLINATION":87.8998,"RA_OF_ASC_NODE":11.4608,"ARG_OF_PERICENTER":82.0371,"MEAN_ANOMALY":278.095,"EPHEMERIS_TYPE":0,"CLASSIFICATION_TYPE":"U","NORAD_CAT_ID":47261,"ELEMENT_SET_NO":999,"REV_AT_EPOCH":25081,"BSTAR":0.0010857805,"MEAN_MOTION_DOT":4.03e-6,"MEAN_MOTION_DDOT":0},{"OBJECT_NAME":"ONEWEB-0114","OBJECT_ID":"2020-100E","EPOCH":"2026-03-04T18:51:17.066016","MEAN_MOTION":13.12440584,"ECCENTRICITY":0.0002041,"INCLINATION":87.9004,"RA_OF_ASC_NODE":11.3741,"ARG_OF_PERICENTER":78.1614,"MEAN_ANOMALY":281.9743,"EPHEMERIS_TYPE":0,"CLASSIFICATION_TYPE":"U","NORAD_CAT_ID":47262,"ELEMENT_SET_NO":999,"REV_AT_EPOCH":25082,"BSTAR":-0.00036486,"MEAN_MOTION_DOT":-1.19e-6,"MEAN_MOTION_DDOT":0},{"OBJECT_NAME":"ONEWEB-0117","OBJECT_ID":"2020-100F","EPOCH":"2026-03-04T09:30:10.561248","MEAN_MOTION":13.12441062,"ECCENTRICITY":0.00018175,"INCLINATION":87.8996,"RA_OF_ASC_NODE":11.4463,"ARG_OF_PERICENTER":81.444,"MEAN_ANOMALY":278.6895,"EPHEMERIS_TYPE":0,"CLASSIFICATION_TYPE":"U","NORAD_CAT_ID":47263,"ELEMENT_SET_NO":999,"REV_AT_EPOCH":25078,"BSTAR":0.00045229249,"MEAN_MOTION_DOT":1.75e-6,"MEAN_MOTION_DDOT":0},{"OBJECT_NAME":"ONEWEB-0118","OBJECT_ID":"2020-100G","EPOCH":"2026-03-04T08:29:11.065920","MEAN_MOTION":13.12443012,"ECCENTRICITY":0.00020011,"INCLINATION":87.8996,"RA_OF_ASC_NODE":11.457,"ARG_OF_PERICENTER":71.6257,"MEAN_ANOMALY":288.5089,"EPHEMERIS_TYPE":0,"CLASSIFICATION_TYPE":"U","NORAD_CAT_ID":47264,"ELEMENT_SET_NO":999,"REV_AT_EPOCH":25097,"BSTAR":-0.0003880841,"MEAN_MOTION_DOT":-1.27e-6,"MEAN_MOTION_DDOT":0},{"OBJECT_NAME":"ONEWEB-0119","OBJECT_ID":"2020-100H","EPOCH":"2026-03-04T09:05:47.810976","MEAN_MOTION":13.12441963,"ECCENTRICITY":0.00018447,"INCLINATION":87.899,"RA_OF_ASC_NODE":11.4783,"ARG_OF_PERICENTER":79.8612,"MEAN_ANOMALY":280.2724,"EPHEMERIS_TYPE":0,"CLASSIFICATION_TYPE":"U","NORAD_CAT_ID":47265,"ELEMENT_SET_NO":999,"REV_AT_EPOCH":25095,"BSTAR":0.0012962448,"MEAN_MOTION_DOT":4.79e-6,"MEAN_MOTION_DDOT":0},{"OBJECT_NAME":"ONEWEB-0120","OBJECT_ID":"2020-100J","EPOCH":"2026-03-04T18:49:02.341632","MEAN_MOTION":13.12440704,"ECCENTRICITY":0.0001931,"INCLINATION":87.8988,"RA_OF_ASC_NODE":11.3984,"ARG_OF_PERICENTER":79.7752,"MEAN_ANOMALY":280.3594,"EPHEMERIS_TYPE":0,"CLASSIFICATION_TYPE":"U","NORAD_CAT_ID":47266,"ELEMENT_SET_NO":999,"REV_AT_EPOCH":25103,"BSTAR":-0.00021494,"MEAN_MOTION_DOT":-6.5e-7,"MEAN_MOTION_DDOT":0},{"OBJECT_NAME":"ONEWEB-0121","OBJECT_ID":"2020-100K","EPOCH":"2026-03-04T09:22:51.726144","MEAN_MOTION":13.12440979,"ECCENTRICITY":0.00016567,"INCLINATION":87.8996,"RA_OF_ASC_NODE":11.4524,"ARG_OF_PERICENTER":85.3558,"MEAN_ANOMALY":274.7759,"EPHEMERIS_TYPE":0,"CLASSIFICATION_TYPE":"U","NORAD_CAT_ID":47267,"ELEMENT_SET_NO":999,"REV_AT_EPOCH":25089,"BSTAR":0.00078942768,"MEAN_MOTION_DOT":2.97e-6,"MEAN_MOTION_DDOT":0},{"OBJECT_NAME":"ONEWEB-0122","OBJECT_ID":"2020-100L","EPOCH":"2026-03-04T09:14:20.156064","MEAN_MOTION":13.12444634,"ECCENTRICITY":0.00019169,"INCLINATION":87.9001,"RA_OF_ASC_NODE":11.4558,"ARG_OF_PERICENTER":84.3512,"MEAN_ANOMALY":275.7835,"EPHEMERIS_TYPE":0,"CLASSIFICATION_TYPE":"U","NORAD_CAT_ID":47268,"ELEMENT_SET_NO":999,"REV_AT_EPOCH":25080,"BSTAR":0.0009831482,"MEAN_MOTION_DOT":3.66e-6,"MEAN_MOTION_DDOT":0},{"OBJECT_NAME":"ONEWEB-0123","OBJECT_ID":"2020-100M","EPOCH":"2026-03-04T09:08:13.898688","MEAN_MOTION":13.12442138,"ECCENTRICITY":0.00018276,"INCLINATION":87.8989,"RA_OF_ASC_NODE":11.4767,"ARG_OF_PERICENTER":76.8139,"MEAN_ANOMALY":283.3193,"EPHEMERIS_TYPE":0,"CLASSIFICATION_TYPE":"U","NORAD_CAT_ID":47269,"ELEMENT_SET_NO":999,"REV_AT_EPOCH":25094,"BSTAR":0.0013164627,"MEAN_MOTION_DOT":4.86e-6,"MEAN_MOTION_DDOT":0},{"OBJECT_NAME":"ONEWEB-0124","OBJECT_ID":"2020-100N","EPOCH":"2026-03-04T08:53:35.278944","MEAN_MOTION":13.12443207,"ECCENTRICITY":0.00016693,"INCLINATION":87.8984,"RA_OF_ASC_NODE":11.4832,"ARG_OF_PERICENTER":79.8249,"MEAN_ANOMALY":280.3067,"EPHEMERIS_TYPE":0,"CLASSIFICATION_TYPE":"U","NORAD_CAT_ID":47270,"ELEMENT_SET_NO":999,"REV_AT_EPOCH":25082,"BSTAR":0.0011056326,"MEAN_MOTION_DOT":4.1e-6,"MEAN_MOTION_DDOT":0}]
